ONEWEB-0207             
1 48242U 21031AJ  25027.90835321  .00000302  00000+0  78004-3 0  9990
2 48242  87.8992  30.1516 0001824  82.1660 277.9677 13.14503882181919
ONEWEB-0208             
1 48243U 21031AK  25027.73788001  .00000031  00000+0  50116-4 0  9998
2 48243  87.8991  30.1998 0001983  90.5439 269.5918 13.14502457181907
ONEWEB-0200             
1 48244U 21031AL  25027.70140377  .00000089  00000+0  20460-3 0  9995
2 48244  87.8990  30.2012 0001994  90.6977 269.4381 13.14502775181822
ONEWEB-0217             
1 48245U 21031AM  25027.71726078 -.00000146  00000+0 -42829-3 0  9994
2 48245  87.8991  30.1823 0002109  93.2041 266.9330 13.14502648181772
ONEWEB-0211             
1 48767U 21045A   25027.92223515  .00000113  00000+0  26720-3 0  9993
2 48767  87.9093 359.7792 0001808  90.4570 269.6768 13.15551462177983
ONEWEB-0223             
1 48768U 21045B   25027.86837210 -.00000094  00000+0 -28352-3 0  9993
2 48768  87.9095 359.8043 0001820 101.3746 258.7588 13.15550113177966
ONEWEB-0230             
1 48769U 21045C   25027.91591927  .00000165  00000+0  40337-3 0  9996
2 48769  87.9083 359.8617 0001643  84.3634 275.7683 13.15548715178231
ONEWEB-0237             
1 48770U 21045D   25027.90483118  .00000212  00000+0  53020-3 0  9995
2 48770  87.9101 359.8095 0001763  96.4422 263.6909 13.15548721177958
